NORAD_CAT_ID,OBJECT_NAME,OBJECT_TYPE,EPOCH,MEAN_MOTION,ECCENTRICITY,INCLINATION,RA_OF_ASC_NODE,ARG_OF_PERICENTER,MEAN_ANOMALY,BSTAR,MEAN_MOTION_DOT,MEAN_MOTION_DDOT,TLE_LINE0,TLE_LINE1,TLE_LINE2,SEMIMAJOR_AXIS,PERIOD,APOGEE,PERIGEE,DECAYED
54063.0,STARLINK-5225,PAYLOAD,2024-08-13 18:29:51,15.08783302,7.75e-05,53.2163,35.9809,11.2732,348.8278,-0.0010902,-0.00017569,0.0,0 STARLINK-5225,1 54063U 22136N   24226.77073903 -.00017569  00000-0 -10902-2 0  9998,2 54063  53.2163  35.9809 0000775  11.2732 348.8278 15.08783302100838,6918.054,95.441,540.455,539.383,0.0
54063.0,STARLINK-5225,PAYLOAD,2024-08-14 04:02:11,15.08798623,0.0003374,53.2238,34.1995,93.3778,266.7601,0.00030215,4.518e-05,0.0,0 STARLINK-5225,1 54063U 22136N   24227.16819142  .00004518  00000-0  30215-3 0  9993,2 54063  53.2238  34.1995 0003374  93.3778 266.7601 15.08798623100893,6918.007,95.44,542.206,537.538,0.0
54063.0,STARLINK-5225,PAYLOAD,2024-08-14 11:59:06,15.08836625,0.0001207,53.2162,32.7127,84.7772,275.3358,0.0013731,0.0002163,0.0,0 STARLINK-5225,1 54063U 22136N   24227.49938464  .00021630  00000-0  13731-2 0  9995,2 54063  53.2162  32.7127 0001207  84.7772 275.3358 15.08836625100947,6917.891,95.438,540.591,538.921,0.0
54063.0,STARLINK-5225,PAYLOAD,2024-08-14 18:20:38,15.08863256,0.0001192,53.2166,31.5241,88.3556,271.7573,0.0010544,0.00016543,0.0,0 STARLINK-5225,1 54063U 22136N   24227.76433815  .00016543  00000-0  10544-2 0  9991,2 54063  53.2166  31.5241 0001192  88.3556 271.7573 15.08863256100981,6917.809,95.436,540.499,538.85,0.0
54063.0,STARLINK-5225,PAYLOAD,2024-08-15 03:52:56,15.08873192,0.0001189,53.2166,29.7394,90.0505,270.0623,0.00083733,0.00013075,0.0,0 STARLINK-5225,1 54063U 22136N   24228.16177054  .00013075  00000-0  83733-3 0  9994,2 54063  53.2166  29.7394 0001189  90.0505 270.0623 15.08873192100561,6917.779,95.435,540.466,538.821,0.0
54063.0,STARLINK-5225,PAYLOAD,2024-08-16 03:43:43,15.08867785,0.0002616,53.2172,25.2789,79.6289,280.4998,0.00095123,0.00014895,0.0,0 STARLINK-5225,1 54063U 22136N   24229.15536848  .00014895  00000-0  95123-3 0  9991,2 54063  53.2172  25.2789 0002616  79.6289 280.4998 15.08867785101196,6917.795,95.436,541.47,537.851,0.0
54063.0,STARLINK-5225,PAYLOAD,2024-08-16 19:37:35,15.08847377,0.0002909,53.2169,22.3051,82.6971,277.4351,0.00083377,0.00013009,0.0,0 STARLINK-5225,1 54063U 22136N   24229.81776953  .00013009  00000-0  83377-3 0  9991,2 54063  53.2169  22.3051 0002909  82.6971 277.4351 15.08847377101294,6917.858,95.437,541.735,537.71,0.0
54063.0,STARLINK-5225,PAYLOAD,2024-08-17 19:28:22,15.08841817,5.82e-05,53.2174,17.844,90.8794,269.2265,0.00076322,0.0001188,0.0,0 STARLINK-5225,1 54063U 22136N   24230.81136591  .00011880  00000-0  76322-3 0  9998,2 54063  53.2174  17.8440 0000582  90.8794 269.2265 15.08841817101443,6917.875,95.437,540.142,539.337,0.0
54063.0,STARLINK-5225,PAYLOAD,2024-08-18 09:46:50,15.08844503,0.0001092,53.2169,15.1676,71.529,288.582,0.00051974,7.994e-05,0.0,0 STARLINK-5225,1 54063U 22136N   24231.40752820  .00007994  00000-0  51974-3 0  9990,2 54063  53.2169  15.1676 0001092  71.5290 288.5820 15.08844503101539,6917.867,95.437,540.487,538.976,0.0
54063.0,STARLINK-5225,PAYLOAD,2024-08-18 16:08:22,15.0885142,0.0001565,53.2186,13.9809,93.2141,266.903,0.00047054,7.211e-05,0.0,0 STARLINK-5225,1 54063U 22136N   24231.67248520  .00007211  00000-0  47054-3 0  9992,2 54063  53.2186  13.9809 0001565  93.2141 266.9030 15.08851420101093,6917.845,95.437,540.793,538.628,0.0
54063.0,STARLINK-5225,PAYLOAD,2024-08-20 12:39:12,15.08848501,0.0001574,53.2189,5.657,104.4989,255.6178,0.00066532,0.00010319,0.0,0 STARLINK-5225,1 54063U 22136N   24233.52722467  .00010319  00000-0  66532-3 0  9990,2 54063  53.2189   5.6570 0001574 104.4989 255.6178 15.08848501101852,6917.854,95.437,540.808,538.631,0.0
54063.0,STARLINK-5225,PAYLOAD,2024-08-20 14:14:35,15.08855047,0.0001649,53.2191,5.3579,108.1035,252.0137,0.0010503,0.00016474,0.0,0 STARLINK-5225,1 54063U 22136N   24233.59346558  .00016474  00000-0  10503-2 0  9994,2 54063  53.2191   5.3579 0001649 108.1035 252.0137 15.08855047101384,6917.834,95.437,540.84,538.559,0.0
54063.0,STARLINK-5225,PAYLOAD,2024-08-20 15:49:58,15.08865531,0.0001578,53.219,5.0593,107.6566,252.4599,0.0013085,0.00020613,0.0,0 STARLINK-5225,1 54063U 22136N   24233.65970407  .00020613  00000-0  13085-2 0  9995,2 54063  53.2190   5.0593 0001578 107.6566 252.4599 15.08865531101879,6917.802,95.436,540.759,538.576,0.0
54063.0,STARLINK-5225,PAYLOAD,2024-08-21 12:29:58,15.08849927,0.0001355,53.2186,1.193,98.3014,261.8132,0.00055983,8.635e-05,0.0,0 STARLINK-5225,1 54063U 22136N   24234.52081611  .00008635  00000-0  55983-3 0  9996,2 54063  53.2186   1.1930 0001355  98.3014 261.8132 15.08849927102007,6917.85,95.437,540.652,538.778,0.0
54063.0,STARLINK-5225,PAYLOAD,2024-08-21 14:05:21,15.08852823,0.0001401,53.2187,0.8954,100.6396,259.4754,4.4695e-05,4.24e-06,0.0,0 STARLINK-5225,1 54063U 22136N   24234.58705510  .00000424  00000-0  44695-4 0  9990,2 54063  53.2187   0.8954 0001401 100.6396 259.4754 15.08852823101531,6917.841,95.437,540.675,538.737,0.0
